GLOBALSTAR M068 [-]     
1 32266U 07048D   23287.56389878 -.00000055  00000+0  26955-3 0  9994
2 32266  51.9913   6.5979 0000712 190.7814 278.1850 12.62768013740283
GLOBALSTAR M079 [+]     
1 37188U 10054A   23287.18290317 -.00000071  00000+0  18473-3 0  9994
2 37188  52.0031 202.8263 0000887  61.5357  86.3525 12.62268833599163
GLOBALSTAR M074 [+]     
1 37189U 10054B   23287.21279899 -.00000070  00000+0  18896-3 0  9999
2 37189  52.0006 202.1523 0000725  72.1775  91.9663 12.62270682599778
GLOBALSTAR M076 [+]     
1 37190U 10054C   23287.47847337 -.00000079  00000+0  13999-3 0  9995
2 37190  52.0020 201.4591 0001264  81.2606  90.6317 12.62262090599525
GLOBALSTAR M077 [+]     
1 37191U 10054D   23287.38603455 -.00000056  00000+0  26792-3 0  9997
2 37191  52.0057 158.4226 0000849  84.8235  85.6102 12.62267543599880
GLOBALSTAR M075 [+]     
1 37192U 10054E   23287.07563358 -.00000111  00000+0 -41540-4 0  9993
2 37192  51.9938 245.2836 0000672  52.7025  26.9730 12.62254146598704
GLOBALSTAR M073 [+]     
1 37193U 10054F   23287.61609514 -.00000050  00000+0  30111-3 0  9991
2 37193  52.0041 156.9905 0000886  78.1183 299.3349 12.62268619600606
GLOBALSTAR M083 [+]     
1 37739U 11033A   23287.47057769 -.00000074  00000+0  16349-3 0  9991
2 37739  51.9843 106.9969 0000646  76.8287 300.4779 12.62270367569607
GLOBALSTAR M088 [+]     
1 37740U 11033B   23287.54236297 -.00000082  00000+0  12131-3 0  9990
2 37740  51.9762  12.7865 0000478  74.2803  28.6010 12.62266207565158
GLOBALSTAR M091 [+]     
1 37741U 11033C   23287.56921743 -.00000067  00000+0  20270-3 0  9996
2 37741  52.0016 335.1685 0000441  51.7404 112.5109 12.62267189565941
GLOBALSTAR M085 [+]     
1 37742U 11033D   23287.30468972 -.00000095  00000+0  50649-4 0  9994
2 37742  51.9861 287.5527 0000471  40.5519  61.7984 12.62263733566420
GLOBALSTAR M081 [+]     
1 37743U 11033E   23287.42078605 -.00000082  00000+0  12055-3 0  9992
2 37743  51.9953 289.6090 0000662  48.2151 101.8272 12.62265558566580
GLOBALSTAR M089 [+]     
1 37744U 11033F   23287.62395128 -.00000097  00000+0  36507-4 0  9992
2 37744  51.9920 243.3321 0000744  80.3486  93.0773 12.62268207567457
GLOBALSTAR M084 [+]     
1 38040U 11080A   23287.24085762 -.00000081  00000+0  12520-3 0  9993
2 38040  51.9989 111.4621 0001050 100.3981  70.5594 12.62266904545385
GLOBALSTAR M080 [+]     
1 38041U 11080B   23287.49754910 -.00000085  00000+0  10500-3 0  9999
2 38041  52.0043 112.0722 0001262  97.3384 280.9056 12.62265539545546
GLOBALSTAR M082 [+]     
1 38042U 11080C   23287.60349392 -.00000112  00000+0 -45037-4 0  9993
2 38042  52.0080  67.1281 0000187  66.7128  14.0700 12.62271625546264
GLOBALSTAR M092 [+]     
1 38043U 11080D   23287.03723291 -.00000060  00000+0  24208-3 0  9992
2 38043  52.0065 159.1982 0000918 101.3987  45.3200 12.62272932544643
GLOBALSTAR M090 [+]     
1 38044U 11080E   23287.54990976 -.00000116  00000+0 -68787-4 0  9999
2 38044  51.9892  61.8872 0000577  81.8706 355.9944 12.62278161546376
GLOBALSTAR M086 [+]     
1 38045U 11080F   23287.57693170 -.00000113  00000+0 -52314-4 0  9995
2 38045  51.9904  62.3090 0001507  67.6785  12.6138 12.62263313546322
GLOBALSTAR M097 [+]     
1 39072U 13005A   23287.50674659 -.00000070  00000+0  18698-3 0  9996
2 39072  52.0066 336.4538 0000454  51.8772 308.2136 12.62271167493562
GLOBALSTAR M093 [+]     
1 39073U 13005B   23287.40102050 -.00000068  00000+0  20189-3 0  9992
2 39073  51.9828 331.0577 0000614  36.3137 323.7771 12.62267579493505
GLOBALSTAR M094 [+]     
1 39074U 13005C   23287.55944288 -.00000109  00000+0 -29547-4 0  9991
2 39074  51.9947 244.3440 0000700  51.1591 308.9338 12.62268412495130
GLOBALSTAR M096 [+]     
1 39075U 13005D   23287.41419418 -.00000087  00000+0  95088-4 0  9996
2 39075  52.0069 292.8238 0000561  40.6880 319.4028 12.62264871494036
GLOBALSTAR M078 [+]     
1 39076U 13005E   23287.54594780 -.00000193  00000+0 -50028-3 0  9990
2 39076  51.9904  17.7606 0000483 245.0358 115.0458 12.62260004492679
GLOBALSTAR M095 [+]     
1 39077U 13005F   23287.49349185 -.00000083  00000+0  11349-3 0  9992
2 39077  51.9827  15.4233 0000218 349.5351  10.5511 12.62269419492526
GLOBALSTAR M087 [+]     
1 52888U 22064A   23287.44700269 -.00000059  00000+0  13200-3 0  9992
2 52888  51.9777 348.7401 0009998  98.5531 261.6502 13.37555019 64508
